QIANFAN-35              
1 61568U 24185S   26062.13862526  .00000949  00000+0  37592-3 0  9995
2 61568  88.9742  67.4238 0007734  38.7099 321.4649 14.28112744 81656
QIANFAN-36              
1 61569U 24185T   26062.12297597  .00000156  00000+0  20742-3 0  9994
2 61569  88.9716  72.6560 0006790 152.5862 207.5651 13.55613148 78812
QIANFAN-37              
1 62238U 24232B   26062.12968887  .00000077  00000+0  10030-3 0  9999
2 62238  89.0046  33.2080 0001635  96.5007 263.6330 13.51004919110028
QIANFAN-38              
1 62239U 24232C   26062.15432653  .00000067  00000+0  84965-4 0  9998
2 62239  89.0053  33.1269 0013642 330.8349  29.2039 13.51003515110088
QIANFAN-39              
1 62240U 24232D   26062.15345564  .00000413  00000+0  16891-3 0  9991
2 62240  89.0052  28.1084 0016240 166.8510 193.3110 14.25433775112848
QIANFAN-40              
1 62241U 24232E   26062.11317765  .00000072  00000+0  93637-4 0  9995
2 62241  89.0081  32.7381 0012979 339.9735  20.0905 13.51002726110447
QIANFAN-41              
1 62242U 24232F   26062.19551452  .00000105  00000+0  14350-3 0  9998
2 62242  89.0051  33.0729 0012926 326.8693  33.1647 13.51004481110117
QIANFAN-42              
1 62243U 24232G   26061.99190161  .00000398  00000+0  16520-3 0  9997
2 62243  89.0049  28.1861 0014833 172.8948 187.2457 14.24527708112797
QIANFAN-43              
1 62244U 24232H   26062.19135866  .00000066  00000+0  83865-4 0  9991
2 62244  89.0056  33.1422 0014618 331.6093  28.4260 13.51004437 78722
QIANFAN-44              
1 62245U 24232J   26062.17901985  .00000074  00000+0  95574-4 0  9992
2 62245  89.0055  32.9528 0012753 329.5191  30.5218 13.51002381110190
QIANFAN-45              
1 62246U 24232K   26062.14612696  .00000053  00000+0  64201-4 0  9998
2 62246  89.0058  33.1055 0013395 328.8217  31.2138 13.51000038110114
QIANFAN-46              
1 62247U 24232L   26062.17077786  .00000078  00000+0  10271-3 0  9991
2 62247  89.0054  33.1687 0013629 334.5688  25.4791 13.51002964110073
QIANFAN-47              
1 62248U 24232M   26062.10082645  .00000075  00000+0  97589-4 0  9990
2 62248  89.0050  33.1055 0014043 333.6298  26.4137 13.51002896110098
QIANFAN-48              
1 62249U 24232N   26062.13786689  .00000062  00000+0  77866-4 0  9995
2 62249  89.0053  33.1068 0016364 335.1893  24.8470 13.51003045110103
QIANFAN-49              
1 62250U 24232P   26062.12552461  .00000075  00000+0  98060-4 0  9998
2 62250  89.0053  33.1200 0013282 330.9625  29.0786 13.51002174 78691
QIANFAN-50              
1 62251U 24232Q   26062.15020198  .00000064  00000+0  80267-4 0  9997
2 62251  89.0058  33.1299 0014964 331.4683  28.5648 13.51003131 78722
QIANFAN-51              
1 62252U 24232R   26062.13377679  .00000068  00000+0  86180-4 0  9999
2 62252  89.0052  33.1206 0012610 336.7894  23.2687 13.51003906 78717
