[{"OBJECT_NAME":"QIANFAN-35","OBJECT_ID":"2024-185S","EPOCH":"2026-03-03T03:19:37.222464","MEAN_MOTION":14.28112744,"ECCENTRICITY":0.0007734,"INCLINATION":88.9742,"RA_OF_ASC_NODE":67.4238,"ARG_OF_PERICENTER":38.7099,"MEAN_ANOMALY":321.4649,"EPHEMERIS_TYPE":0,"CLASSIFICATION_TYPE":"U","NORAD_CAT_ID":61568,"ELEMENT_SET_NO":999,"REV_AT_EPOCH":8165,"BSTAR":0.00037592,"MEAN_MOTION_DOT":9.49e-6,"MEAN_MOTION_DDOT":0},{"OBJECT_NAME":"QIANFAN-36","OBJECT_ID":"2024-185T","EPOCH":"2026-03-03T02:57:05.123808","MEAN_MOTION":13.55613148,"ECCENTRICITY":0.000679,"INCLINATION":88.9716,"RA_OF_ASC_NODE":72.656,"ARG_OF_PERICENTER":152.5862,"MEAN_ANOMALY":207.5651,"EPHEMERIS_TYPE":0,"CLASSIFICATION_TYPE":"U","NORAD_CAT_ID":61569,"ELEMENT_SET_NO":999,"REV_AT_EPOCH":7881,"BSTAR":0.00020742,"MEAN_MOTION_DOT":1.56e-6,"MEAN_MOTION_DDOT":0},{"OBJECT_NAME":"QIANFAN-37","OBJECT_ID":"2024-232B","EPOCH":"2026-03-03T03:06:45.118368","MEAN_MOTION":13.51004919,"ECCENTRICITY":0.0001635,"INCLINATION":89.0046,"RA_OF_ASC_NODE":33.208,"ARG_OF_PERICENTER":96.5007,"MEAN_ANOMALY":263.633,"EPHEMERIS_TYPE":0,"CLASSIFICATION_TYPE":"U","NORAD_CAT_ID":62238,"ELEMENT_SET_NO":999,"REV_AT_EPOCH":11002,"BSTAR":0.0001003,"MEAN_MOTION_DOT":7.7e-7,"MEAN_MOTION_DDOT":0},{"OBJECT_NAME":"QIANFAN-38","OBJECT_ID":"2024-232C","EPOCH":"2026-03-03T03:42:13.812192","MEAN_MOTION":13.51003515,"ECCENTRICITY":0.0013642,"INCLINATION":89.0053,"RA_OF_ASC_NODE":33.1269,"ARG_OF_PERICENTER":330.8349,"MEAN_ANOMALY":29.2039,"EPHEMERIS_TYPE":0,"CLASSIFICATION_TYPE":"U","NORAD_CAT_ID":62239,"ELEMENT_SET_NO":999,"REV_AT_EPOCH":11008,"BSTAR":8.4965e-5,"MEAN_MOTION_DOT":6.7e-7,"MEAN_MOTION_DDOT":0},{"OBJECT_NAME":"QIANFAN-39","OBJECT_ID":"2024-232D","EPOCH":"2026-03-03T03:40:58.567296","MEAN_MOTION":14.25433775,"ECCENTRICITY":0.001624,"INCLINATION":89.0052,"RA_OF_ASC_NODE":28.1084,"ARG_OF_PERICENTER":166.851,"MEAN_ANOMALY":193.311,"EPHEMERIS_TYPE":0,"CLASSIFICATION_TYPE":"U","NORAD_CAT_ID":62240,"ELEMENT_SET_NO":999,"REV_AT_EPOCH":11284,"BSTAR":0.00016891,"MEAN_MOTION_DOT":4.13e-6,"MEAN_MOTION_DDOT":0},{"OBJECT_NAME":"QIANFAN-40","OBJECT_ID":"2024-232E","EPOCH":"2026-03-03T02:42:58.548960","MEAN_MOTION":13.51002726,"ECCENTRICITY":0.0012979,"INCLINATION":89.0081,"RA_OF_ASC_NODE":32.7381,"ARG_OF_PERICENTER":339.9735,"MEAN_ANOMALY":20.0905,"EPHEMERIS_TYPE":0,"CLASSIFICATION_TYPE":"U","NORAD_CAT_ID":62241,"ELEMENT_SET_NO":999,"REV_AT_EPOCH":11044,"BSTAR":9.3637e-5,"MEAN_MOTION_DOT":7.2e-7,"MEAN_MOTION_DDOT":0},{"OBJECT_NAME":"QIANFAN-41","OBJECT_ID":"2024-232F","EPOCH":"2026-03-03T04:41:32.454528","MEAN_MOTION":13.51004481,"ECCENTRICITY":0.0012926,"INCLINATION":89.0051,"RA_OF_ASC_NODE":33.0729,"ARG_OF_PERICENTER":326.8693,"MEAN_ANOMALY":33.1647,"EPHEMERIS_TYPE":0,"CLASSIFICATION_TYPE":"U","NORAD_CAT_ID":62242,"ELEMENT_SET_NO":999,"REV_AT_EPOCH":11011,"BSTAR":0.0001435,"MEAN_MOTION_DOT":1.05e-6,"MEAN_MOTION_DDOT":0},{"OBJECT_NAME":"QIANFAN-42","OBJECT_ID":"2024-232G","EPOCH":"2026-03-02T23:48:20.299104","MEAN_MOTION":14.24527708,"ECCENTRICITY":0.0014833,"INCLINATION":89.0049,"RA_OF_ASC_NODE":28.1861,"ARG_OF_PERICENTER":172.8948,"MEAN_ANOMALY":187.2457,"EPHEMERIS_TYPE":0,"CLASSIFICATION_TYPE":"U","NORAD_CAT_ID":62243,"ELEMENT_SET_NO":999,"REV_AT_EPOCH":11279,"BSTAR":0.0001652,"MEAN_MOTION_DOT":3.98e-6,"MEAN_MOTION_DDOT":0},{"OBJECT_NAME":"QIANFAN-43","OBJECT_ID":"2024-232H","EPOCH":"2026-03-03T04:35:33.388224","MEAN_MOTION":13.51004437,"ECCENTRICITY":0.0014618,"INCLINATION":89.0056,"RA_OF_ASC_NODE":33.1422,"ARG_OF_PERICENTER":331.6093,"MEAN_ANOMALY":28.426,"EPHEMERIS_TYPE":0,"CLASSIFICATION_TYPE":"U","NORAD_CAT_ID":62244,"ELEMENT_SET_NO":999,"REV_AT_EPOCH":7872,"BSTAR":8.3865e-5,"MEAN_MOTION_DOT":6.6e-7,"MEAN_MOTION_DDOT":0},{"OBJECT_NAME":"QIANFAN-44","OBJECT_ID":"2024-232J","EPOCH":"2026-03-03T04:17:47.315040","MEAN_MOTION":13.51002381,"ECCENTRICITY":0.0012753,"INCLINATION":89.0055,"RA_OF_ASC_NODE":32.9528,"ARG_OF_PERICENTER":329.5191,"MEAN_ANOMALY":30.5218,"EPHEMERIS_TYPE":0,"CLASSIFICATION_TYPE":"U","NORAD_CAT_ID":62245,"ELEMENT_SET_NO":999,"REV_AT_EPOCH":11019,"BSTAR":9.5574e-5,"MEAN_MOTION_DOT":7.4e-7,"MEAN_MOTION_DDOT":0},{"OBJECT_NAME":"QIANFAN-45","OBJECT_ID":"2024-232K","EPOCH":"2026-03-03T03:30:25.369344","MEAN_MOTION":13.51000038,"ECCENTRICITY":0.0013395,"INCLINATION":89.0058,"RA_OF_ASC_NODE":33.1055,"ARG_OF_PERICENTER":328.8217,"MEAN_ANOMALY":31.2138,"EPHEMERIS_TYPE":0,"CLASSIFICATION_TYPE":"U","NORAD_CAT_ID":62246,"ELEMENT_SET_NO":999,"REV_AT_EPOCH":11011,"BSTAR":6.4201e-5,"MEAN_MOTION_DOT":5.3e-7,"MEAN_MOTION_DDOT":0},{"OBJECT_NAME":"QIANFAN-46","OBJECT_ID":"2024-232L","EPOCH":"2026-03-03T04:05:55.207104","MEAN_MOTION":13.51002964,"ECCENTRICITY":0.0013629,"INCLINATION":89.0054,"RA_OF_ASC_NODE":33.1687,"ARG_OF_PERICENTER":334.5688,"MEAN_ANOMALY":25.4791,"EPHEMERIS_TYPE":0,"CLASSIFICATION_TYPE":"U","NORAD_CAT_ID":62247,"ELEMENT_SET_NO":999,"REV_AT_EPOCH":11007,"BSTAR":0.00010271,"MEAN_MOTION_DOT":7.8e-7,"MEAN_MOTION_DDOT":0},{"OBJECT_NAME":"QIANFAN-47","OBJECT_ID":"2024-232M","EPOCH":"2026-03-03T02:25:11.405280","MEAN_MOTION":13.51002896,"ECCENTRICITY":0.0014043,"INCLINATION":89.005,"RA_OF_ASC_NODE":33.1055,"ARG_OF_PERICENTER":333.6298,"MEAN_ANOMALY":26.4137,"EPHEMERIS_TYPE":0,"CLASSIFICATION_TYPE":"U","NORAD_CAT_ID":62248,"ELEMENT_SET_NO":999,"REV_AT_EPOCH":11009,"BSTAR":9.7589e-5,"MEAN_MOTION_DOT":7.5e-7,"MEAN_MOTION_DDOT":0},{"OBJECT_NAME":"QIANFAN-48","OBJECT_ID":"2024-232N","EPOCH":"2026-03-03T03:18:31.699296","MEAN_MOTION":13.51003045,"ECCENTRICITY":0.0016364,"INCLINATION":89.0053,"RA_OF_ASC_NODE":33.1068,"ARG_OF_PERICENTER":335.1893,"MEAN_ANOMALY":24.847,"EPHEMERIS_TYPE":0,"CLASSIFICATION_TYPE":"U","NORAD_CAT_ID":62249,"ELEMENT_SET_NO":999,"REV_AT_EPOCH":11010,"BSTAR":7.7866e-5,"MEAN_MOTION_DOT":6.2e-7,"MEAN_MOTION_DDOT":0},{"OBJECT_NAME":"QIANFAN-49","OBJECT_ID":"2024-232P","EPOCH":"2026-03-03T03:00:45.326304","MEAN_MOTION":13.51002174,"ECCENTRICITY":0.0013282,"INCLINATION":89.0053,"RA_OF_ASC_NODE":33.12,"ARG_OF_PERICENTER":330.9625,"MEAN_ANOMALY":29.0786,"EPHEMERIS_TYPE":0,"CLASSIFICATION_TYPE":"U","NORAD_CAT_ID":62250,"ELEMENT_SET_NO":999,"REV_AT_EPOCH":7869,"BSTAR":9.806e-5,"MEAN_MOTION_DOT":7.5e-7,"MEAN_MOTION_DDOT":0},{"OBJECT_NAME":"QIANFAN-50","OBJECT_ID":"2024-232Q","EPOCH":"2026-03-03T03:36:17.451072","MEAN_MOTION":13.51003131,"ECCENTRICITY":0.0014964,"INCLINATION":89.0058,"RA_OF_ASC_NODE":33.1299,"ARG_OF_PERICENTER":331.4683,"MEAN_ANOMALY":28.5648,"EPHEMERIS_TYPE":0,"CLASSIFICATION_TYPE":"U","NORAD_CAT_ID":62251,"ELEMENT_SET_NO":999,"REV_AT_EPOCH":7872,"BSTAR":8.0267e-5,"MEAN_MOTION_DOT":6.4e-7,"MEAN_MOTION_DDOT":0},{"OBJECT_NAME":"QIANFAN-51","OBJECT_ID":"2024-232R","EPOCH":"2026-03-03T03:12:38.314656","MEAN_MOTION":13.51003906,"ECCENTRICITY":0.001261,"INCLINATION":89.0052,"RA_OF_ASC_NODE":33.1206,"ARG_OF_PERICENTER":336.7894,"MEAN_ANOMALY":23.2687,"EPHEMERIS_TYPE":0,"CLASSIFICATION_TYPE":"U","NORAD_CAT_ID":62252,"ELEMENT_SET_NO":999,"REV_AT_EPOCH":7871,"BSTAR":8.618e-5,"MEAN_MOTION_DOT":6.8e-7,"MEAN_MOTION_DDOT":0}]
